420P/Hill,e,14.5042,173.9520,157.0979,5.530455,0.0757814,0.49580316,357.4591,04/19.0/2022,2000,g 11.5,4.0
# From MPEC 2021-W31
421P/McNaught,e,10.0794,55.3477,259.8365,5.075423,0.0861977,0.67548058,38.6334,04/19.0/2022,2000,g 14.0,4.0
# From MPEC 2022-A21
422P/Christensen,e,39.5467,36.0345,305.1548,6.321009,0.0620190,0.50875143,5.9049,04/19.0/2022,2000,g 11.0,4.0
# From MPEC 2022-A21
423P/Lemmon,e,8.3459,33.3048,80.3007,6.166301,0.0643676,0.12104200,13.6765,04/19.0/2022,2000,g  8.0,4.0
# From MPEC 2022-CN4
424P/LaSagra,e,8.6855,51.1776,312.4774,4.413992,0.1062813,0.69126696,18.0004,04/19.0/2022,2000,g 17.0,4.0
# From MPEC 2022-GA9
425P/Kowalski,e,16.4205,210.0851,200.7529,6.331503,0.0618648,0.54352374,13.0234,04/19.0/2022,2000,g 12.0,4.0
# From MPEC 2021-Y10
426P/PANSTARRS,e,17.7731,280.5218,119.1238,3.186259,0.1732936,0.16131897,271.0971,04/19.0/2022,2000,g 13.5,4.0
# From MPEC 2022-C56
428P/Gibbs,e,8.5148,299.3371,36.8228,3.484389,0.1515354,0.51949389,51.4209,04/19.0/2022,2000,g 15.0,4.0
# From MPEC 2022-H04
429P/LINEAR-Hill,e,7.5220,322.0732,75.5386,3.550583,0.1473176,0.49128322,15.7420,04/19.0/2022,2000,g 15.5,4.0
# From MPEC 2022-CN4
430P/Scotti,e,4.4750,54.6720,94.4980,3.106702,0.1799926,0.49959662,24.8001,04/19.0/2022,2000,g 16.5,4.0
# From MPEC 2022-ED3
431P/Scotti,e,22.3922,202.8463,199.8572,3.472273,0.1523292,0.47766630,9.8452,04/19.0/2022,2000,g 14.0,4.0
# From MPEC 2021-U31
432P/PANSTARRS,e,10.0693,239.1429,105.2366,3.035494,0.1863632,0.24203212,43.1709,04/19.0/2022,2000,g 17.0,4.0
# From MPEC 2022-GA9
434P/Tenagra,e,6.3396,288.9679,128.0534,4.128008,0.1175150,0.27434707,20.5857,04/19.0/2022,2000,g 13.0,4.0
# From MPEC 2021-W31
435P/PANSTARRS,e,18.8827,98.5498,244.1516,3.018366,0.1879517,0.31871386,49.9080,04/19.0/2022,2000,g 17.0,4.0
# From MPEC 2022-C56
436P/Garradd,e,20.2105,87.1896,282.5965,5.928877,0.0682724,0.66981476,8.9777,04/19.0/2022,2000,g 14.5,4.0
# From MPEC 2021-Y10
437P/PANSTARRS,e,3.6897,245.8688,206.7114,4.558628,0.1012635,0.25411916,347.7040,04/19.0/2022,2000,g 13.0,4.0
# From MPEC 2021-W47
438P/Christensen,e,8.2878,260.1551,58.9469,3.847039,0.1306213,0.41574721,97.1349,04/19.0/2022,2000,g 14.5,4.0
# From MPEC 2022-C56
439P/LINEAR,e,7.1142,56.4164,342.0004,3.487664,0.1513220,0.46948759,35.6955,04/19.0/2022,2000,g 13.5,4.0
# From MPEC 2022-H04
440P/Kobayashi,e,12.3394,328.8822,183.3183,8.584802,0.0391840,0.76048000,0.7856,04/19.0/2022,2000,g 15.5,4.0
# From MPEC 2022-F14
441P/PANSTARRS,e,2.5745,143.6159,178.7273,4.134804,0.1172254,0.19559938,214.8892,04/19.0/2022,2000,g 13.5,4.0
# From MPC107687
1I/`Oumuamua,h,09/09.4886/2017,122.6778,24.5997,241.6845,1.199252,0.255240,2000,23.0,2.0
# From MPEC 2020-K19
2I/Borisov,h,12/08.5549/2019,44.0527,308.1480,209.1251,3.356636,2.006548,2000,11.0,4.0
